GLOBALSTAR M084         
1 38040U 11080A   24349.89615186 -.00000066  00000+0  21192-3 0  9991
2 38040  52.0003 249.5235 0001047  52.2420  40.0203 12.62272427599393
GLOBALSTAR M080         
1 38041U 11080B   24349.86832414 -.00000074  00000+0  16785-3 0  9995
2 38041  52.0055 251.1515 0000981  32.8993  51.9655 12.62259311599519
GLOBALSTAR M082         
1 38042U 11080C   24350.13383309 -.00000056  00000+0  26799-3 0  9998
2 38042  52.0050 205.7695 0001351 100.1292  52.2839 12.62271273600424
GLOBALSTAR M092         
1 38043U 11080D   24350.15592084 -.00000085  00000+0  10613-3 0  9993
2 38043  52.0095 296.0683 0000705  56.1222 316.7782 12.62270429598927
GLOBALSTAR M090         
1 38044U 11080E   24350.00074619 -.00000066  00000+0  21185-3 0  9992
2 38044  51.9861 200.2192 0001095  93.5931  54.0103 12.62265027600396
GLOBALSTAR M086         
1 38045U 11080F   24350.34888142 -.00000067  00000+0  20361-3 0  9990
2 38045  51.9870 199.6956 0000259  43.9864 126.8379 12.62264790600446
GLOBALSTAR M097         
1 39072U 13005A   24349.70462949 -.00000133  00000+0 -16139-3 0  9994
2 39072  52.0034 116.0165 0000827 124.8288 235.2657 12.62268197547513
GLOBALSTAR M093         
1 39073U 13005B   24349.67763009 -.00000113  00000+0 -53526-4 0  9992
2 39073  51.9802 109.6928 0000899 131.1677 228.9267 12.62277226547465
